ONEWEB-0268             
1 48986U 21060V   22177.41477727  .00000040  00000+0  70947-4 0  9996
2 48986  87.9125 157.7752 0001966  81.2437 278.8917 13.16597245 48827
ONEWEB-0269             
1 48987U 21060W   22177.47237456  .00000118  00000+0  27472-3 0  9996
2 48987  87.9114 157.7935 0001984  83.5025 276.6332 13.16596319 48601
ONEWEB-0270             
1 48988U 21060X   22177.48848952  .00000044  00000+0  82283-4 0  9997
2 48988  87.9129 157.7674 0002096  94.1060 266.0310 13.16595551 48640
ONEWEB-0271             
1 48989U 21060Y   22177.47696110  .00000026  00000+0  34234-4 0  9997
2 48989  87.9099 157.7628 0001599 101.3945 258.7365 13.16595790 48649
ONEWEB-0272             
1 48990U 21060Z   22177.49997958 -.00000013  00000+0 -68290-4 0  9992
2 48990  87.9119 157.7646 0001584  92.1455 267.9858 13.16596432 48598
ONEWEB-0273             
1 48991U 21060AA  22177.44472881  .00000016  00000+0  78575-5 0  9990
2 48991  87.9125 157.7739 0001893  94.9876 265.1471 13.16593960 48560
ONEWEB-0274             
1 48992U 21060AB  22177.47005974  .00000092  00000+0  20586-3 0  9990
2 48992  87.9095 157.7872 0001663  98.1540 261.9779 13.16594519 48605
ONEWEB-0275             
1 48993U 21060AC  22177.45853516  .00000102  00000+0  23374-3 0  9992
2 48993  87.9112 157.7725 0001892  91.6477 268.4871 13.16597160 48536
ONEWEB-0276             
1 48994U 21060AD  22177.49310162  .00000201  00000+0  49335-3 0  9997
2 48994  87.9106 157.8142 0001810 101.3934 258.7400 13.16595389 48554
ONEWEB-0277             
1 48995U 21060AE  22177.50690509  .00000012  00000+0 -27568-5 0  9993
2 48995  87.9105 157.8129 0001485 103.8120 256.3176 13.16595616 48547
ONEWEB-0278             
1 48996U 21060AF  22177.49538600  .00000020  00000+0  18810-4 0  9992
2 48996  87.9161 157.7333 0001936  91.8183 268.3170 13.16592971 48674
ONEWEB-0279             
1 48997U 21060AG  22177.50460515 -.00000050  00000+0 -16458-3 0  9994
2 48997  87.9125 157.7585 0002120  85.6078 274.5295 13.16592641 48608
ONEWEB-0280             
1 48998U 21060AH  22177.44242723  .00000049  00000+0  93632-4 0  9993
2 48998  87.9119 157.7906 0001284 113.6495 246.4771 13.16595192 48537
ONEWEB-0281             
1 48999U 21060AJ  22177.44934086  .00000007  00000+0 -14100-4 0  9992
2 48999  87.9134 157.7584 0001898  76.8584 283.2759 13.16594709 48603
ONEWEB-0282             
1 49000U 21060AK  22177.47928137  .00000119  00000+0  27822-3 0  9996
2 49000  87.9109 157.7991 0001841 101.2672 258.8665 13.16593843 48589
ONEWEB-0283             
1 49001U 21060AL  22177.46776153  .00000140  00000+0  33387-3 0  9992
2 49001  87.9103 157.7970 0001620  94.7799 265.3517 13.16594562 48591
ONEWEB-0284             
1 49002U 21060AM  22177.46085225  .00000100  00000+0  22909-3 0  9990
2 49002  87.9122 157.8125 0001918  99.6669 260.4679 13.16595118 48577
ONEWEB-0285             
1 49075U 21075A   22177.58404784  .00000487  00000+0  13190-2 0  9993
2 49075  87.8868 279.1678 0001837 105.8135 254.3196 13.12441038 44807
ONEWEB-0286             
1 49076U 21075B   22177.55229351 -.00000136  00000+0 -41295-3 0  9997
2 49076  87.8853 279.1365 0002051  83.5964 276.5398 13.12446920 44159
ONEWEB-0287             
1 49077U 21075C   22177.57978460 -.00000222  00000+0 -60447-3 0  9998
2 49077  87.9078 294.4141 0002337 104.2382 255.9009 13.17648625 42467
ONEWEB-0288             
1 49078U 21075D   22177.53745262 -.00000361  00000+0 -10398-2 0  9990
2 49078  87.8756 279.1697 0002103  93.6236 266.5133 13.12443822 44775
ONEWEB-0289             
1 49079U 21075E   22177.59840236 -.00000067  00000+0 -20626-3 0  9993
2 49079  87.9081 294.3799 0001872  95.0264 265.1081 13.17649583 43042
ONEWEB-0290             
1 49080U 21075F   22177.58599335  .00000025  00000+0  30729-4 0  9993
2 49080  87.9075 294.4127 0002245 107.8058 252.3318 13.17649569 42450
ONEWEB-0291             
1 49081U 21075G   22177.57515908  .00000043  00000+0  76455-4 0  9993
2 49081  87.9062 294.4133 0002283 102.3598 257.7789 13.17654833 42445
ONEWEB-0293             
1 49082U 21075H   22177.59218204  .00000026  00000+0  33040-4 0  9999
2 49082  87.9081 294.3788 0002306 106.5700 253.5685 13.17651166 42477
ONEWEB-0294             
1 49083U 21075J   22177.54275743 -.00000373  00000+0 -10720-2 0  9991
2 49083  87.8833 279.1441 0002319 111.9333 248.2042 13.12442677 44161
ONEWEB-0295             
1 49084U 21075K   22177.59375459  .00000083  00000+0  18076-3 0  9991
2 49084  87.9072 294.3465 0002706  98.2303 261.9135 13.17647822 42434
ONEWEB-0296             
1 49085U 21075L   22177.52688900 -.00000112  00000+0 -34659-3 0  9993
2 49085  87.8891 279.1320 0003104  93.2089 266.9395 13.12447542 44160
ONEWEB-0297             
1 49086U 21075M   22177.55651607 -.00000087  00000+0 -27663-3 0  9999
2 49086  87.8858 279.1827 0001581  90.7743 269.3567 13.12442223 44778
ONEWEB-0298             
1 49087U 21075N   22177.59529151  .00000054  00000+0  10497-3 0  9991
2 49087  87.9089 294.3575 0002076  86.9383 273.1986 13.17654209 42468
ONEWEB-0299             
1 49088U 21075P   22177.59684162 -.00000163  00000+0 -45427-3 0  9990
2 49088  87.9081 294.3078 0002043  93.5673 266.5692 13.17650775 42441
ONEWEB-0300             
1 49089U 21075Q   22177.54807197 -.00000247  00000+0 -72234-3 0  9990
2 49089  87.8890 279.1265 0001792  94.2268 265.9065 13.12438081 44792
ONEWEB-0301             
1 49090U 21075R   22177.53320244 -.00000373  00000+0 -10712-2 0  9996
2 49090  87.8896 279.1358 0001636 103.4886 256.6425 13.12444599 44157
ONEWEB-0302             
1 49091U 21075S   22177.52158052  .00000067  00000+0  15062-3 0  9994
2 49091  87.8903 279.1358 0002195  99.6621 260.4756 13.12441280 44133
ONEWEB-0304             
1 49092U 21075T   22177.58135189  .00000029  00000+0  41440-4 0  9995
2 49092  87.9075 294.3767 0001963  99.3074 260.8279 13.17650477 42417
ONEWEB-0305             
1 49093U 21075U   22177.57360744  .00000016  00000+0  75423-5 0  9997
2 49093  87.9078 294.4213 0002289  90.8190 269.3204 13.17649436 42443
ONEWEB-0308             
1 49094U 21075V   22177.51627817  .00000213  00000+0  55564-3 0  9990
2 49094  87.8891 279.1366 0001818 100.8248 259.3085 13.12444708 44143
ONEWEB-0309             
1 49095U 21075W   22177.57824899  .00000015  00000+0  57259-5 0  9991
2 49095  87.9085 294.4205 0002346 114.2962 245.8415 13.17651009 42415
ONEWEB-0310             
1 49096U 21075X   22177.52896549 -.00000210  00000+0 -62042-3 0  9991
2 49096  87.8860 279.2086 0002277 107.4539 252.6838 13.12444586 44772
ONEWEB-0311             
1 49097U 21075Y   22177.58288426 -.00000285  00000+0 -76735-3 0  9993
2 49097  87.9080 294.4224 0002130  87.8417 272.2959 13.17647900 42461
ONEWEB-0312             
1 49098U 21075Z   22177.59066126  .00000023  00000+0  25460-4 0  9994
2 49098  87.9096 294.3732 0002390 100.6251 259.5150 13.17646823 42442
ONEWEB-0313             
1 49099U 21075AA  22177.57668829  .00000107  00000+0  24136-3 0  9992
2 49099  87.9084 294.4236 0002506  99.9496 260.1918 13.17646891 42434
ONEWEB-0314             
1 49100U 21075AB  22177.57205050  .00000030  00000+0  43455-4 0  9999
2 49100  87.9086 294.4198 0002447  99.3236 260.8172 13.17650517 42402
ONEWEB-0315             
1 49101U 21075AC  22177.57560132  .00000451  00000+0  12187-2 0  9998
2 49101  87.8761 279.1599 0002089  90.9922 269.1446 13.12445274 44762
ONEWEB-0316             
1 49102U 21075AD  22177.58335648  .00000013  00000+0  00000+0 0  9994
2 49102  87.9551 263.8826 0016768 287.7485 284.7558 13.40782521  1303
ONEWEB-0317             
1 49103U 21075AE  22177.57136647  .00000368  00000+0  98688-3 0  9998
2 49103  87.8855 279.1628 0002213 107.0378 253.0993 13.12442014 44785
ONEWEB-0318             
1 49104U 21075AF  22177.58335648 -.00003459  00000+0 -71704-2 0  9997
2 49104  87.9647 263.8630 0015415 295.0483 133.5340 13.32412225  1304
ONEWEB-0319             
1 49105U 21075AG  22177.58445461  .00000036  00000+0  60097-4 0  9994
2 49105  87.9082 294.3825 0002284  77.6680 282.4707 13.17648358 42448
ONEWEB-0323             
1 49106U 21075AH  22177.56182760  .00000108  00000+0  26471-3 0  9990
2 49106  87.8905 279.1204 0002067  93.6290 266.5075 13.12444359 44148
ONEWEB-0329             
1 49107U 21075AJ  22177.58755565  .00000045  00000+0  81965-4 0  9992
2 49107  87.9080 294.3817 0002285  97.3281 262.8110 13.17647668 42427
ONEWEB-0330             
1 49108U 21075AK  22177.58910561  .00000067  00000+0  14058-3 0  9994
2 49108  87.9085 294.3986 0002169  99.7358 260.4018 13.17650185 42465
ONEWEB-0292             
1 49186U 21083A   22177.44718835 -.00000062  00000+0 -20356-3 0  9999
2 49186  87.8978 248.6283 0001930  95.3852 264.7497 13.13469910 40353
ONEWEB-0303             
1 49187U 21083B   22177.48144204  .00000036  00000+0  57998-4 0  9999
2 49187  87.9136 263.9018 0002277  93.4662 266.6731 13.18685284 38651
ONEWEB-0306             
1 49188U 21083C   22177.47524828  .00000018  00000+0  11963-4 0  9995
2 49188  87.9141 263.8920 0002125  83.1290 277.0084 13.18687811 38693
ONEWEB-0307             
1 49189U 21083D   22177.44273463 -.00000125  00000+0 -37837-3 0  9997
2 49189  87.8979 248.6276 0002105  95.2847 264.8522 13.13465360 40352
ONEWEB-0320             
1 49190U 21083E   22177.47990354  .00000024  00000+0  27714-4 0  9997
2 49190  87.9139 263.9097 0002180 107.5335 252.6035 13.18685465 38655
ONEWEB-0321             
1 49191U 21083F   22177.58335648  .00044806  00000+0  45965-2 0  9991
2 49191  87.2087 227.3188 0004605  64.7427 250.4892 14.90210965  1305
ONEWEB-0322             
1 49192U 21083G   22177.43821425  .00000039  00000+0  70966-4 0  9990
2 49192  87.8960 248.6276 0002233 114.0499 246.0864 13.13470788 40341
ONEWEB-0324             
1 49193U 21083H   22177.46903899 -.00001524  00000+0 -38994-2 0  9995
2 49193  87.9131 263.9062 0002515  86.6685 273.4735 13.18692058 38675
